{"type": "FeatureCollection", "features": [ {"type": "Feature", "properties": {"norad_id": 30914, "name": "FENGYUN 1C DEB", "group": "fengyun-1c-debris", "lat": -18.86353658168372, "lon": -126.64818979206811, "alt_km": 852.1190678046942, "timestamp": "2025-12-11T22:43:47.548356+00:00", "meta": {"OBJECT_NAME": "FENGYUN 1C DEB", "OBJECT_ID": "1999-025AZC", "EPOCH": "2025-12-10T22:58:09.615072", "MEAN_MOTION": 13.08825188, "ECCENTRICITY": 0.0516313, "INCLINATION": 99.9827, "RA_OF_ASC_NODE": 228.9749, "ARG_OF_PERICENTER": 358.3788, "MEAN_ANOMALY": 1.5635, "EPHEMERIS_TYPE": 0, "CLASSIFICATION_TYPE": "U", "NORAD_CAT_ID": 30914, "ELEMENT_SET_NO": 999, "REV_AT_EPOCH": 59052, "BSTAR": 0.0052744, "MEAN_MOTION_DOT": 3.428e-05, "MEAN_MOTION_DDOT": 0}, "tle": {"line1": "1 30914U 99025AZC 25344.95705573  .00003428  00000+0  52744-2 0  9991", "line2": "2 30914  99.9827 228.9749 0516313 358.3788   1.5635 13.08825188590520"}}, "geometry": {"type": "Point", "coordinates": [-126.64818979206811, -18.86353658168372]}}, {"type": "Feature", "properties": {"norad_id": 30915, "name": "FENGYUN 1C DEB", "group": "fengyun-1c-debris", "lat": 80.70392777417632, "lon": -12.013353246224439, "alt_km": 795.8626730768119, "timestamp": "2025-12-11T22:43:47.548366+00:00", "meta": {"OBJECT_NAME": "FENGYUN 1C DEB", "OBJECT_ID": "1999-025AZD", "EPOCH": "2025-12-10T15:59:09.860640", "MEAN_MOTION": 14.25015237, "ECCENTRICITY": 0.00538155, "INCLINATION": 98.9415, "RA_OF_ASC_NODE": 60.8015, "ARG_OF_PERICENTER": 173.9227, "MEAN_ANOMALY": 186.2616, "EPHEMERIS_TYPE": 0, "CLASSIFICATION_TYPE": "U", "NORAD_CAT_ID": 30915, "ELEMENT_SET_NO": 999, "REV_AT_EPOCH": 96483, "BSTAR": 0.002505326, "MEAN_MOTION_DOT": 5.913e-05, "MEAN_MOTION_DDOT": 0}, "tle": {"line1": "1 30915U 99025AZD 25344.66608635  .00005913  00000+0  25053-2 0  9995", "line2": "2 30915  98.9415  60.8015 0053815 173.9227 186.2616 14.25015237964839"}}, "geometry": {"type": "Point", "coordinates": [-12.013353246224439, 80.70392777417632]}}, {"type": "Feature", "properties": {"norad_id": 30916, "name": "FENGYUN 1C DEB", "group": "fengyun-1c-debris", "lat": 0.7670346600319873, "lon": -133.58698686520742, "alt_km": 859.3421109101228, "timestamp": "2025-12-11T22:43:47.548376+00:00", "meta": {"OBJECT_NAME": "FENGYUN 1C DEB", "OBJECT_ID": "1999-025AZE", "EPOCH": "2025-12-09T03:31:45.007680", "MEAN_MOTION": 14.0877406, "ECCENTRICITY": 0.00625639, "INCLINATION": 99.002, "RA_OF_ASC_NODE": 43.4963, "ARG_OF_PERICENTER": 268.4567, "MEAN_ANOMALY": 118.5461, "EPHEMERIS_TYPE": 0, "CLASSIFICATION_TYPE": "U", "NORAD_CAT_ID": 30916, "ELEMENT_SET_NO": 999, "REV_AT_EPOCH": 95793, "BSTAR": 0.0014002638, "MEAN_MOTION_DOT": 2.414e-05, "MEAN_MOTION_DDOT": 0}, "tle": {"line1": "1 30916U 99025AZE 25343.14704870  .00002414  00000+0  14003-2 0  9992", "line2": "2 30916  99.0020  43.4963 0062563 268.4567 118.5461 14.08774060957936"}}, "geometry": {"type": "Point", "coordinates": [-133.58698686520742, 0.7670346600319873]}}, {"type": "Feature", "properties": {"norad_id": 30918, "name": "FENGYUN 1C DEB", "group": "fengyun-1c-debris", "lat": -60.72760447980912, "lon": 113.53556089085602, "alt_km": 1025.642987614454, "timestamp": "2025-12-11T22:43:47.548386+00:00", "meta": {"OBJECT_NAME": "FENGYUN 1C DEB", "OBJECT_ID": "1999-025AZG", "EPOCH": "2025-12-10T14:26:58.535232", "MEAN_MOTION": 13.9680579, "ECCENTRICITY": 0.0158244, "INCLINATION": 98.4154, "RA_OF_ASC_NODE": 96.991, "ARG_OF_PERICENTER": 131.3352, "MEAN_ANOMALY": 246.9102, "EPHEMERIS_TYPE": 0, "CLASSIFICATION_TYPE": "U", "NORAD_CAT_ID": 30918, "ELEMENT_SET_NO": 999, "REV_AT_EPOCH": 95023, "BSTAR": 0.0022449, "MEAN_MOTION_DOT": 3.431e-05, "MEAN_MOTION_DDOT": 0}, "tle": {"line1": "1 30918U 99025AZG 25344.60206638  .00003431  00000+0  22449-2 0  9998", "line2": "2 30918  98.4154  96.9910 0158244 131.3352 246.9102 13.96805790950231"}}, "geometry": {"type": "Point", "coordinates": [113.53556089085602, -60.72760447980912]}}, {"type": "Feature", "properties": {"norad_id": 30920, "name": "FENGYUN 1C DEB", "group": "fengyun-1c-debris", "lat": 32.62231008204791, "lon": -46.992732767128764, "alt_km": 779.4004394710928, "timestamp": "2025-12-11T22:43:47.548396+00:00", "meta": {"OBJECT_NAME": "FENGYUN 1C DEB", "OBJECT_ID": "1999-025AZJ", "EPOCH": "2025-12-11T15:16:06.841056", "MEAN_MOTION": 14.16604082, "ECCENTRICITY": 0.0109934, "INCLINATION": 98.9186, "RA_OF_ASC_NODE": 126.9272, "ARG_OF_PERICENTER": 101.5818, "MEAN_ANOMALY": 259.7721, "EPHEMERIS_TYPE": 0, "CLASSIFICATION_TYPE": "U", "NORAD_CAT_ID": 30920, "ELEMENT_SET_NO": 999, "REV_AT_EPOCH": 95078, "BSTAR": 0.0058000281, "MEAN_MOTION_DOT": 0.00012249, "MEAN_MOTION_DDOT": 0}, "tle": {"line1": "1 30920U 99025AZJ 25345.63619029  .00012249  00000+0  58000-2 0  9996", "line2": "2 30920  98.9186 126.9272 0109934 101.5818 259.7721 14.16604082950780"}}, "geometry": {"type": "Point", "coordinates": [-46.992732767128764, 32.62231008204791]}}, {"type": "Feature", "properties": {"norad_id": 30921, "name": "FENGYUN 1C DEB", "group": "fengyun-1c-debris", "lat": -13.331814484659034, "lon": 75.52332796094916, "alt_km": 779.9539673700565, "timestamp": "2025-12-11T22:43:47.548406+00:00", "meta": {"OBJECT_NAME": "FENGYUN 1C DEB", "OBJECT_ID": "1999-025AZK", "EPOCH": "2025-12-11T04:37:26.606784", "MEAN_MOTION": 14.32709883, "ECCENTRICITY": 0.00169286, "INCLINATION": 98.8422, "RA_OF_ASC_NODE": 72.6399, "ARG_OF_PERICENTER": 42.5656, "MEAN_ANOMALY": 15.3506, "EPHEMERIS_TYPE": 0, "CLASSIFICATION_TYPE": "U", "NORAD_CAT_ID": 30921, "ELEMENT_SET_NO": 999, "REV_AT_EPOCH": 96802, "BSTAR": 0.002699666, "MEAN_MOTION_DOT": 7.319e-05, "MEAN_MOTION_DDOT": 0}, "tle": {"line1": "1 30921U 99025AZK 25345.19266906  .00007319  00000+0  26997-2 0  9992", "line2": "2 30921  98.8422  72.6399 0016928  42.5656  15.3506 14.32709883968020"}}, "geometry": {"type": "Point", "coordinates": [75.52332796094916, -13.331814484659034]}}, {"type": "Feature", "properties": {"norad_id": 30922, "name": "FENGYUN 1C DEB", "group": "fengyun-1c-debris", "lat": -24.108208957274247, "lon": 5.715875771046439, "alt_km": 837.5651267606409, "timestamp": "2025-12-11T22:43:47.548416+00:00", "meta": {"OBJECT_NAME": "FENGYUN 1C DEB", "OBJECT_ID": "1999-025AZL", "EPOCH": "2025-12-09T20:36:06.254208", "MEAN_MOTION": 14.17448931, "ECCENTRICITY": 0.00146808, "INCLINATION": 98.6404, "RA_OF_ASC_NODE": 359.7837, "ARG_OF_PERICENTER": 61.6746, "MEAN_ANOMALY": 62.0594, "EPHEMERIS_TYPE": 0, "CLASSIFICATION_TYPE": "U", "NORAD_CAT_ID": 30922, "ELEMENT_SET_NO": 999, "REV_AT_EPOCH": 96523, "BSTAR": 0.0010059343, "MEAN_MOTION_DOT": 1.998e-05, "MEAN_MOTION_DDOT": 0}, "tle": {"line1": "1 30922U 99025AZL 25343.85840572  .00001998  00000+0  10059-2 0  9990", "line2": "2 30922  98.6404 359.7837 0014680  61.6746  62.0594 14.17448931965233"}}, "geometry": {"type": "Point", "coordinates": [5.715875771046439, -24.108208957274247]}}, {"type": "Feature", "properties": {"norad_id": 30925, "name": "FENGYUN 1C DEB", "group": "fengyun-1c-debris", "lat": 28.583209378042792, "lon": 112.80709905006448, "alt_km": 767.1637484081157, "timestamp": "2025-12-11T22:43:47.548426+00:00", "meta": {"OBJECT_NAME": "FENGYUN 1C DEB", "OBJECT_ID": "1999-025AZP", "EPOCH": "2025-12-11T07:45:48.086208", "MEAN_MOTION": 14.43091486, "ECCENTRICITY": 0.00330821, "INCLINATION": 98.8812, "RA_OF_ASC_NODE": 117.0445, "ARG_OF_PERICENTER": 241.4994, "MEAN_ANOMALY": 149.4928, "EPHEMERIS_TYPE": 0, "CLASSIFICATION_TYPE": "U", "NORAD_CAT_ID": 30925, "ELEMENT_SET_NO": 999, "REV_AT_EPOCH": 97052, "BSTAR": 0.0050847647, "MEAN_MOTION_DOT": 0.00017166, "MEAN_MOTION_DDOT": 0}, "tle": {"line1": "1 30925U 99025AZP 25345.32347322  .00017166  00000+0  50848-2 0  9996", "line2": "2 30925  98.8812 117.0445 0033082 241.4994 149.4928 14.43091486970528"}}, "geometry": {"type": "Point", "coordinates": [112.80709905006448, 28.583209378042792]}}, {"type": "Feature", "properties": {"norad_id": 30926, "name": "FENGYUN 1C DEB", "group": "fengyun-1c-debris", "lat": 44.99662738395272, "lon": -82.31512880459651, "alt_km": 488.0588721419517, "timestamp": "2025-12-11T22:43:47.548436+00:00", "meta": {"OBJECT_NAME": "FENGYUN 1C DEB", "OBJECT_ID": "1999-025AZQ", "EPOCH": "2025-12-11T06:24:28.777536", "MEAN_MOTION": 14.89322505, "ECCENTRICITY": 0.01659765, "INCLINATION": 98.8019, "RA_OF_ASC_NODE": 285.8414, "ARG_OF_PERICENTER": 26.5333, "MEAN_ANOMALY": 334.4258, "EPHEMERIS_TYPE": 0, "CLASSIFICATION_TYPE": "U", "NORAD_CAT_ID": 30926, "ELEMENT_SET_NO": 999, "REV_AT_EPOCH": 745, "BSTAR": 0.0010358861, "MEAN_MOTION_DOT": 0.00012673, "MEAN_MOTION_DDOT": 0}, "tle": {"line1": "1 30926U 99025AZQ 25345.26699974  .00012673  00000+0  10359-2 0  9994", "line2": "2 30926  98.8019 285.8414 0165976  26.5333 334.4258 14.89322505  7459"}}, "geometry": {"type": "Point", "coordinates": [-82.31512880459651, 44.99662738395272]}}, {"type": "Feature", "properties": {"norad_id": 30927, "name": "FENGYUN 1C DEB", "group": "fengyun-1c-debris", "lat": 65.78844654488418, "lon": -112.51446752878353, "alt_km": 873.2119157832949, "timestamp": "2025-12-11T22:43:47.548446+00:00", "meta": {"OBJECT_NAME": "FENGYUN 1C DEB", "OBJECT_ID": "1999-025AZR", "EPOCH": "2025-12-10T10:24:49.588992", "MEAN_MOTION": 14.08960297, "ECCENTRICITY": 0.009844, "INCLINATION": 99.1824, "RA_OF_ASC_NODE": 44.8614, "ARG_OF_PERICENTER": 12.5092, "MEAN_ANOMALY": 347.8487, "EPHEMERIS_TYPE": 0, "CLASSIFICATION_TYPE": "U", "NORAD_CAT_ID": 30927, "ELEMENT_SET_NO": 999, "REV_AT_EPOCH": 95651, "BSTAR": 0.002186802, "MEAN_MOTION_DOT": 3.913e-05, "MEAN_MOTION_DDOT": 0}, "tle": {"line1": "1 30927U 99025AZR 25344.43390728  .00003913  00000+0  21868-2 0  9992", "line2": "2 30927  99.1824  44.8614 0098440  12.5092 347.8487 14.08960297956510"}}, "geometry": {"type": "Point", "coordinates": [-112.51446752878353, 65.78844654488418]}}]}